{
  "norad_id": 54184,
  "name": "STARLINK-5162",
  "history": [
    {
      "epoch": "2026-03-28T20:12:32.430528",
      "apogee_km": 540.8222692236741,
      "perigee_km": 538.6377451801391,
      "latitude_deg": 37.53121062027305,
      "longitude_deg": 39.23603391973302,
      "semi_major_axis_km": 6917.867007201906,
      "eccentricity": 0.00015789,
      "inclination_deg": 53.2165,
      "raan_deg": 278.5046,
      "arg_perigee_deg": 67.9603,
      "mean_anomaly_deg": 292.1557,
      "mean_motion_rev_day": 15.08844378
    }
  ]
}