{"fetched_at":"2026-03-29T16:36:15Z","count":15609,"tles":[{"name":"STARLINK-5162","line1":"1 54184U 22141AD  26087.84204202  .00000919  00000+0  75843-4 0  9996","line2":"2 54184  53.2165 278.5046 0001578  67.9603 292.1557 15.08844378188747","category":"Starlink"}]}